stk.v.11.0

# WrittenBy    STK_v11.3.0

BEGIN Ephemeris

    NumberOfEphemerisPoints		 5761

    ScenarioEpoch		 8 May 2017 03:51:42.766000

# Epoch in JDate format: 2457881.66091164351852
# Epoch in YYDDD format:   17128.16091164351852


    InterpolationMethod		 Lagrange

    InterpolationSamplesM1		 7

    CentralBody		 Earth

    CoordinateSystem		 ICRF

# Time of first point: 11 May 2017 03:51:42.766000000 UTCG = 2457884.66091164351852 JDate = 17131.16091164351852 YYDDD

    EphemerisTimePosVel		

6.8688000000000000e+05 -3.2794589354299039e+07 -2.6501054812490296e+07 -2.9139494077327192e+04 1.9325550260011589e+03 -2.3915324336099652e+03 1.1199189523211293e+00
6.8700000000000000e+05 -3.2561430072698701e+07 -2.6787020370697442e+07 -2.9003989610297314e+04 1.9534082021885124e+03 -2.3745297893815628e+03 1.1384744150303254e+00
6.8712000000000000e+05 -3.2325777369279888e+07 -2.7070934688758176e+07 -2.8866263706061054e+04 1.9741117911054330e+03 -2.3573453160250247e+03 1.1569426694337563e+00
6.8724000000000000e+05 -3.2087649289758470e+07 -2.7352776026002940e+07 -2.8726326914558544e+04 1.9946642072814793e+03 -2.3399803296166269e+03 1.1753223009302480e+00
6.8736000000000000e+05 -3.1847064069413189e+07 -2.7632522800521858e+07 -2.8584189955075686e+04 2.0150638768260931e+03 -2.3224361600579423e+03 1.1936119017094737e+00
6.8748000000000000e+05 -3.1604040131688830e+07 -2.7910153590817671e+07 -2.8439863715422769e+04 2.0353092375491710e+03 -2.3047141509739313e+03 1.2118100708598298e+00
6.8760000000000000e+05 -3.1358596086784966e+07 -2.8185647137446381e+07 -2.8293359251100188e+04 2.0553987390807392e+03 -2.2868156596099780e+03 1.2299154144757825e+00
6.8772000000000000e+05 -3.1110750730230432e+07 -2.8458982344645459e+07 -2.8144687784451289e+04 2.0753308429897224e+03 -2.2687420567278837e+03 1.2479265457646780e+00
6.8784000000000000e+05 -3.0860523041443542e+07 -2.8730138281949535e+07 -2.7993860703802453e+04 2.0951040229017954e+03 -2.2504947265008241e+03 1.2658420851530050e+00
6.8796000000000000e+05 -3.0607932182278287e+07 -2.8999094185793400e+07 -2.7840889562590444e+04 2.1147167646163120e+03 -2.2320750664072784e+03 1.2836606603921055e+00
6.8808000000000000e+05 -3.0352997495556507e+07 -2.9265829461102236e+07 -2.7685786078477111e+04 2.1341675662222992e+03 -2.2134844871239397e+03 1.3013809066633211e+00
6.8820000000000000e+05 -3.0095738503586218e+07 -2.9530323682868917e+07 -2.7528562132451512e+04 2.1534549382135092e+03 -2.1947244124176118e+03 1.3190014666825720e+00
6.8832000000000000e+05 -2.9836174906666197e+07 -2.9792556597718295e+07 -2.7369229767919518e+04 2.1725774036025186e+03 -2.1757962790361057e+03 1.3365209908043560e+00
6.8844000000000000e+05 -2.9574326581576914e+07 -3.0052508125458311e+07 -2.7207801189780967e+04 2.1915334980338707e+03 -2.1567015365981392e+03 1.3539381371251611e+00
6.8856000000000000e+05 -2.9310213580057967e+07 -3.0310158360617865e+07 -2.7044288763494464e+04 2.2103217698962458e+03 -2.1374416474822506e+03 1.3712515715862854e+00
6.8868000000000000e+05 -2.9043856127272103e+07 -3.0565487573971272e+07 -2.6878705014129846e+04 2.2289407804336565e+03 -2.1180180867147346e+03 1.3884599680760554e+00
6.8880000000000000e+05 -2.8775274620255940e+07 -3.0818476214049213e+07 -2.6711062625408453e+04 2.2473891038556549e+03 -2.0984323418566100e+03 1.4055620085314320e+00
6.8892000000000000e+05 -2.8504489626357563e+07 -3.1069104908636093e+07 -2.6541374438731214e+04 2.2656653274465466e+03 -2.0786859128896249e+03 1.4225563830390016e+00
6.8904000000000000e+05 -2.8231521881661039e+07 -3.1317354466253616e+07 -2.6369653452194674e+04 2.2837680516736036e+03 -2.0587803121013117e+03 1.4394417899353407e+00
6.8916000000000000e+05 -2.7956392289398015e+07 -3.1563205877630550e+07 -2.6195912819594992e+04 2.3016958902942633e+03 -2.0387170639690985e+03 1.4562169359067476e+00
6.8928000000000000e+05 -2.7679121918346524e+07 -3.1806640317158520e+07 -2.6020165849420042e+04 2.3194474704623099e+03 -2.0184977050434879e+03 1.4728805360883332e+00
6.8940000000000000e+05 -2.7399732001217097e+07 -3.2047639144333702e+07 -2.5842426003829616e+04 2.3370214328330267e+03 -1.9981237838303075e+03 1.4894313141624651e+00
6.8952000000000000e+05 -2.7118243933026332e+07 -3.2286183905184370e+07 -2.5662706897623906e+04 2.3544164316673155e+03 -1.9775968606720480e+03 1.5058680024565525e+00
6.8964000000000000e+05 -2.6834679269458029e+07 -3.2522256333684113e+07 -2.5481022297200248e+04 2.3716311349347720e+03 -1.9569185076282920e+03 1.5221893420401720e+00
6.8976000000000000e+05 -2.6549059725212000e+07 -3.2755838353150688e+07 -2.5297386119498271e+04 2.3886642244157078e+03 -1.9360903083552457e+03 1.5383940828215192e+00
6.8988000000000000e+05 -2.6261407172340725e+07 -3.2986912077630322e+07 -2.5111812430933514e+04 2.4055143958021149e+03 -1.9151138579843830e+03 1.5544809836431841e+00
6.9000000000000000e+05 -2.5971743638573945e+07 -3.3215459813267436e+07 -2.4924315446319579e+04 2.4221803587975628e+03 -1.8939907630002094e+03 1.5704488123772402e+00
6.9012000000000000e+05 -2.5680091305631332e+07 -3.3441464059659611e+07 -2.4734909527778935e+04 2.4386608372160222e+03 -1.8727226411171564e+03 1.5862963460196411e+00
6.9024000000000000e+05 -2.5386472507523369e+07 -3.3664907511197776e+07 -2.4543609183642406e+04 2.4549545690796049e+03 -1.8513111211556159e+03 1.6020223707839163e+00
6.9036000000000000e+05 -2.5090909728840549e+07 -3.3885773058391407e+07 -2.4350429067337493e+04 2.4710603067152151e+03 -1.8297578429171235e+03 1.6176256821941615e+00
6.9048000000000000e+05 -2.4793425603031073e+07 -3.4104043789178781e+07 -2.4155383976265552e+04 2.4869768168501023e+03 -1.8080644570587010e+03 1.6331050851773126e+00
6.9060000000000000e+05 -2.4494042910667121e+07 -3.4319702990222007e+07 -2.3958488850667953e+04 2.5027028807063125e+03 -1.7862326249663668e+03 1.6484593941546992e+00
6.9072000000000000e+05 -2.4192784577699874e+07 -3.4532734148186900e+07 -2.3759758772481298e+04 2.5182372940940259e+03 -1.7642640186278247e+03 1.6636874331328702e+00
6.9084000000000000e+05 -2.3889673673703369e+07 -3.4743120951007493e+07 -2.3559208964181780e+04 2.5335788675037743e+03 -1.7421603205043414e+03 1.6787880357936820e+00
6.9096000000000000e+05 -2.3584733410107423e+07 -3.4950847289135158e+07 -2.3356854787618788e+04 2.5487264261975374e+03 -1.7199232234018202e+03 1.6937600455836470e+00
6.9108000000000000e+05 -2.3277987138419598e+07 -3.5155897256772161e+07 -2.3152711742837804e+04 2.5636788102987016e+03 -1.6975544303410843e+03 1.7086023158025312e+00
6.9120000000000000e+05 -2.2969458348436542e+07 -3.5358255153089635e+07 -2.2946795466892760e+04 2.5784348748808811e+03 -1.6750556544273757e+03 1.7233137096911961e+00
6.9132000000000000e+05 -2.2659170666444652e+07 -3.5557905483429857e+07 -2.2739121732647851e+04 2.5929934900555936e+03 -1.6524286187190842e+03 1.7378931005186777e+00
6.9144000000000000e+05 -2.2347147853410341e+07 -3.5754832960492700e+07 -2.2529706447568984e+04 2.6073535410587806e+03 -1.6296750560957119e+03 1.7523393716684976e+00
6.9156000000000000e+05 -2.2033413803159967e+07 -3.5949022505506203e+07 -2.2318565652504891e+04 2.6215139283361686e+03 -1.6067967091250866e+03 1.7666514167241958e+00
6.9168000000000000e+05 -2.1717992540549602e+07 -3.6140459249381177e+07 -2.2105715520458034e+04 2.6354735676274659e+03 -1.5837953299298340e+03 1.7808281395540821e+00
6.9180000000000000e+05 -2.1400908219624758e+07 -3.6329128533849731e+07 -2.1891172355345396e+04 2.6492313900493823e+03 -1.5606726800531167e+03 1.7948684543951998e+00
6.9192000000000000e+05 -2.1082185121770222e+07 -3.6515015912587620e+07 -2.1674952590749224e+04 2.6627863421774750e+03 -1.5374305303236526e+03 1.8087712859364911e+00
6.9204000000000000e+05 -2.0761847653850142e+07 -3.6698107152320422e+07 -2.1457072788657857e+04 2.6761373861268039e+03 -1.5140706607200241e+03 1.8225355694011625e+00
6.9216000000000000e+05 -2.0439920346338511e+07 -3.6878388233913302e+07 -2.1237549638196713e+04 2.6892834996314004e+03 -1.4905948602342826e+03 1.8361602506282424e+00
6.9228000000000000e+05 -2.0116427851440180e+07 -3.7055845353444450e+07 -2.1016399954349530e+04 2.7022236761225331e+03 -1.4670049267348672e+03 1.8496442861533222e+00
6.9240000000000000e+05 -1.9791394941202555e+07 -3.7230464923261940e+07 -2.0793640676669987e+04 2.7149569248057742e+03 -1.4433026668288417e+03 1.8629866432884796e+00
6.9252000000000000e+05 -1.9464846505618118e+07 -3.7402233573024109e+07 -2.0569288867983763e+04 2.7274822707368544e+03 -1.4194898957234627e+03 1.8761863002013728e+00
6.9264000000000000e+05 -1.9136807550717909e+07 -3.7571138150723234e+07 -2.0343361713081169e+04 2.7397987548963015e+03 -1.3955684370870902e+03 1.8892422459935025e+00
6.9276000000000000e+05 -1.8807303196656149e+07 -3.7737165723692454e+07 -2.0115876517400426e+04 2.7519054342628606e+03 -1.3715401229094493e+03 1.9021534807776364e+00
6.9288000000000000e+05 -1.8476358675786097e+07 -3.7900303579595961e+07 -1.9886850705701716e+04 2.7638013818856857e+03 -1.3474067933612566e+03 1.9149190157543869e+00
6.9300000000000000e+05 -1.8143999330727328e+07 -3.8060539227402233e+07 -1.9656301820732086e+04 2.7754856869552987e+03 -1.3231702966532187e+03 1.9275378732879405e+00
6.9312000000000000e+05 -1.7810250612424593e+07 -3.8217860398340359e+07 -1.9424247521881316e+04 2.7869574548733121e+03 -1.2988324888944169e+03 1.9400090869809286e+00
6.9324000000000000e+05 -1.7475138078198347e+07 -3.8372255046839319e+07 -1.9190705583828865e+04 2.7982158073209075e+03 -1.2743952339500868e+03 1.9523317017484376e+00
6.9336000000000000e+05 -1.7138687389787156e+07 -3.8523711351450145e+07 -1.8955693895181965e+04 2.8092598823260673e+03 -1.2498604032988044e+03 1.9645047738911512e+00
6.9348000000000000e+05 -1.6800924311382126e+07 -3.8672217715750925e+07 -1.8719230457105015e+04 2.8200888343295514e+03 -1.2252298758890888e+03 1.9765273711676181e+00
6.9360000000000000e+05 -1.6461874707653455e+07 -3.8817762769234590e+07 -1.8481333381940341e+04 2.8307018342496162e+03 -1.2005055379954358e+03 1.9883985728656426e+00
END Ephemeris
